{
  "type": "FeatureCollection",
  "features": [
    {
      "type": "Feature",
      "properties": {
        "norad_id": 34121,
        "name": "COSMOS 2251 DEB",
        "group": "cosmos-2251-debris",
        "lat": -73.30148870675534,
        "lon": -34.30629278036795,
        "alt_km": 755.0517963018283,
        "timestamp": "2025-12-27T02:10:16.582806+00:00",
        "meta_object_name": "COSMOS 2251 DEB",
        "meta_object_id": "1993-036KS",
        "meta_epoch": "2025-12-26T15:05:44.340288",
        "meta_mean_motion": 13.91982721,
        "meta_eccentricity": 0.0241152,
        "meta_inclination": 73.993,
        "meta_ra_of_asc_node": 73.3678,
        "meta_arg_of_pericenter": 275.9261,
        "meta_mean_anomaly": 198.0674,
        "meta_ephemeris_type": 0,
        "meta_classification_type": "U",
        "meta_norad_cat_id": 34121,
        "meta_element_set_no": 999,
        "meta_rev_at_epoch": 85318,
        "meta_bstar": 0.0014117,
        "meta_mean_motion_dot": 2.259e-05,
        "meta_mean_motion_ddot": 0,
        "tle_line1": "1 34121U 93036KS  25360.62898542  .00002259  00000+0  14117-2 0  9995",
        "tle_line2": "2 34121  73.9930  73.3678 0241152 275.9261 198.0674 13.91982721853188"
      },
      "geometry": {
        "type": "Point",
        "coordinates": [
          -34.30629278036795,
          -73.30148870675534
        ]
      }
    },
    {
      "type": "Feature",
      "properties": {
        "norad_id": 34122,
        "name": "COSMOS 2251 DEB",
        "group": "cosmos-2251-debris",
        "lat": -26.411531484517077,
        "lon": 82.84905321229628,
        "alt_km": 622.826679266539,
        "timestamp": "2025-12-27T02:10:16.582817+00:00",
        "meta_object_name": "COSMOS 2251 DEB",
        "meta_object_id": "1993-036KT",
        "meta_epoch": "2025-12-26T17:09:14.970240",
        "meta_mean_motion": 14.65207523,
        "meta_eccentricity": 0.0085154,
        "meta_inclination": 74.036,
        "meta_ra_of_asc_node": 91.7452,
        "meta_arg_of_pericenter": 344.7085,
        "meta_mean_anomaly": 167.0548,
        "meta_ephemeris_type": 0,
        "meta_classification_type": "U",
        "meta_norad_cat_id": 34122,
        "meta_element_set_no": 999,
        "meta_rev_at_epoch": 88889,
        "meta_bstar": 0.0010714,
        "meta_mean_motion_dot": 6.056e-05,
        "meta_mean_motion_ddot": 0,
        "tle_line1": "1 34122U 93036KT  25360.71475660  .00006056  00000+0  10714-2 0  9996",
        "tle_line2": "2 34122  74.0360  91.7452 0085154 344.7085 167.0548 14.65207523888893"
      },
      "geometry": {
        "type": "Point",
        "coordinates": [
          82.84905321229628,
          -26.411531484517077
        ]
      }
    },
    {
      "type": "Feature",
      "properties": {
        "norad_id": 34127,
        "name": "COSMOS 2251 DEB",
        "group": "cosmos-2251-debris",
        "lat": -43.5511521476596,
        "lon": 2.2895446348122244,
        "alt_km": 804.9950757112938,
        "timestamp": "2025-12-27T02:10:16.582827+00:00",
        "meta_object_name": "COSMOS 2251 DEB",
        "meta_object_id": "1993-036KY",
        "meta_epoch": "2025-12-26T12:00:14.305248",
        "meta_mean_motion": 14.31664332,
        "meta_eccentricity": 0.0114466,
        "meta_inclination": 74.1802,
        "meta_ra_of_asc_node": 18.9928,
        "meta_arg_of_pericenter": 216.1466,
        "meta_mean_anomaly": 295.7094,
        "meta_ephemeris_type": 0,
        "meta_classification_type": "U",
        "meta_norad_cat_id": 34127,
        "meta_element_set_no": 999,
        "meta_rev_at_epoch": 86968,
        "meta_bstar": 0.0015007,
        "meta_mean_motion_dot": 4.276e-05,
        "meta_mean_motion_ddot": 0,
        "tle_line1": "1 34127U 93036KY  25360.50016557  .00004276  00000+0  15007-2 0  9996",
        "tle_line2": "2 34127  74.1802  18.9928 0114466 216.1466 295.7094 14.31664332869682"
      },
      "geometry": {
        "type": "Point",
        "coordinates": [
          2.2895446348122244,
          -43.5511521476596
        ]
      }
    },
    {
      "type": "Feature",
      "properties": {
        "norad_id": 34128,
        "name": "COSMOS 2251 DEB",
        "group": "cosmos-2251-debris",
        "lat": 15.761849117198174,
        "lon": 82.77913622095407,
        "alt_km": 577.1759976576577,
        "timestamp": "2025-12-27T02:10:16.582837+00:00",
        "meta_object_name": "COSMOS 2251 DEB",
        "meta_object_id": "1993-036KZ",
        "meta_epoch": "2025-12-26T20:59:32.714016",
        "meta_mean_motion": 15.01699706,
        "meta_eccentricity": 0.0026031,
        "meta_inclination": 73.9979,
        "meta_ra_of_asc_node": 267.8658,
        "meta_arg_of_pericenter": 17.0625,
        "meta_mean_anomaly": 60.1795,
        "meta_ephemeris_type": 0,
        "meta_classification_type": "U",
        "meta_norad_cat_id": 34128,
        "meta_element_set_no": 999,
        "meta_rev_at_epoch": 89379,
        "meta_bstar": 0.0014252,
        "meta_mean_motion_dot": 0.00018678,
        "meta_mean_motion_ddot": 0,
        "tle_line1": "1 34128U 93036KZ  25360.87468419  .00018678  00000+0  14252-2 0  9997",
        "tle_line2": "2 34128  73.9979 267.8658 0026031  17.0625  60.1795 15.01699706893797"
      },
      "geometry": {
        "type": "Point",
        "coordinates": [
          82.77913622095407,
          15.761849117198174
        ]
      }
    },
    {
      "type": "Feature",
      "properties": {
        "norad_id": 34129,
        "name": "COSMOS 2251 DEB",
        "group": "cosmos-2251-debris",
        "lat": -20.0633877186849,
        "lon": 137.44166771715777,
        "alt_km": 670.172313351397,
        "timestamp": "2025-12-27T02:10:16.582847+00:00",
        "meta_object_name": "COSMOS 2251 DEB",
        "meta_object_id": "1993-036LA",
        "meta_epoch": "2025-12-26T07:22:19.005888",
        "meta_mean_motion": 14.75988713,
        "meta_eccentricity": 0.0033597,
        "meta_inclination": 74.0358,
        "meta_ra_of_asc_node": 312.973,
        "meta_arg_of_pericenter": 30.5542,
        "meta_mean_anomaly": 329.758,
        "meta_ephemeris_type": 0,
        "meta_classification_type": "U",
        "meta_norad_cat_id": 34129,
        "meta_element_set_no": 999,
        "meta_rev_at_epoch": 61498,
        "meta_bstar": 0.0015495,
        "meta_mean_motion_dot": 0.00010749,
        "meta_mean_motion_ddot": 0,
        "tle_line1": "1 34129U 93036LA  25360.30716442  .00010749  00000+0  15495-2 0  9999",
        "tle_line2": "2 34129  74.0358 312.9730 0033597  30.5542 329.7580 14.75988713614984"
      },
      "geometry": {
        "type": "Point",
        "coordinates": [
          137.44166771715777,
          -20.0633877186849
        ]
      }
    },
    {
      "type": "Feature",
      "properties": {
        "norad_id": 34136,
        "name": "COSMOS 2251 DEB",
        "group": "cosmos-2251-debris",
        "lat": -34.68006427402494,
        "lon": -154.2361315856838,
        "alt_km": 626.7921200491955,
        "timestamp": "2025-12-27T02:10:16.582857+00:00",
        "meta_object_name": "COSMOS 2251 DEB",
        "meta_object_id": "1993-036LH",
        "meta_epoch": "2025-12-26T11:16:59.568096",
        "meta_mean_motion": 14.8016249,
        "meta_eccentricity": 0.0084895,
        "meta_inclination": 74.02,
        "meta_ra_of_asc_node": 15.5507,
        "meta_arg_of_pericenter": 134.7343,
        "meta_mean_anomaly": 16.3589,
        "meta_ephemeris_type": 0,
        "meta_classification_type": "U",
        "meta_norad_cat_id": 34136,
        "meta_element_set_no": 999,
        "meta_rev_at_epoch": 90213,
        "meta_bstar": 0.00036087,
        "meta_mean_motion_dot": 2.878e-05,
        "meta_mean_motion_ddot": 0,
        "tle_line1": "1 34136U 93036LH  25360.47013389  .00002878  00000+0  36087-3 0  9990",
        "tle_line2": "2 34136  74.0200  15.5507 0084895 134.7343  16.3589 14.80162490902136"
      },
      "geometry": {
        "type": "Point",
        "coordinates": [
          -154.2361315856838,
          -34.68006427402494
        ]
      }
    },
    {
      "type": "Feature",
      "properties": {
        "norad_id": 34139,
        "name": "COSMOS 2251 DEB",
        "group": "cosmos-2251-debris",
        "lat": -61.42922637977953,
        "lon": -165.02110400624258,
        "alt_km": 672.4394483374817,
        "timestamp": "2025-12-27T02:10:16.582867+00:00",
        "meta_object_name": "COSMOS 2251 DEB",
        "meta_object_id": "1993-036LL",
        "meta_epoch": "2025-12-26T16:51:33.031296",
        "meta_mean_motion": 14.59239142,
        "meta_eccentricity": 0.0042403,
        "meta_inclination": 74.0296,
        "meta_ra_of_asc_node": 227.4464,
        "meta_arg_of_pericenter": 296.2354,
        "meta_mean_anomaly": 120.3771,
        "meta_ephemeris_type": 0,
        "meta_classification_type": "U",
        "meta_norad_cat_id": 34139,
        "meta_element_set_no": 999,
        "meta_rev_at_epoch": 88353,
        "meta_bstar": 0.0013266,
        "meta_mean_motion_dot": 6.315e-05,
        "meta_mean_motion_ddot": 0,
        "tle_line1": "1 34139U 93036LL  25360.70246564  .00006315  00000+0  13266-2 0  9995",
        "tle_line2": "2 34139  74.0296 227.4464 0042403 296.2354 120.3771 14.59239142883531"
      },
      "geometry": {
        "type": "Point",
        "coordinates": [
          -165.02110400624258,
          -61.42922637977953
        ]
      }
    }
  ]
}